{
  "type": "FeatureCollection",
  "features": [
    {
      "type": "Feature",
      "properties": {
        "norad_id": 41581,
        "name": "INTELSAT 31 (IS-31)",
        "group": "intelsat",
        "lat": -0.010622764588191082,
        "lon": -75.35090821164428,
        "alt_km": 35785.20879690178,
        "timestamp": "2025-12-25T19:00:39.016019+00:00",
        "meta_object_name": "INTELSAT 31 (IS-31)",
        "meta_object_id": "2016-035A",
        "meta_epoch": "2025-12-23T19:31:44.703840",
        "meta_mean_motion": 1.00269658,
        "meta_eccentricity": 0.0001926,
        "meta_inclination": 0.0283,
        "meta_ra_of_asc_node": 262.055,
        "meta_arg_of_pericenter": 303.365,
        "meta_mean_anomaly": 85.0534,
        "meta_ephemeris_type": 0,
        "meta_classification_type": "U",
        "meta_norad_cat_id": 41581,
        "meta_element_set_no": 999,
        "meta_rev_at_epoch": 3492,
        "meta_bstar": 0,
        "meta_mean_motion_dot": -1.29e-06,
        "meta_mean_motion_ddot": 0,
        "tle_line1": "1 41581U 16035A   25357.81371185 -.00000129  00000+0  00000+0 0  9991",
        "tle_line2": "2 41581   0.0283 262.0550 0001926 303.3650  85.0534  1.00269658 34922"
      },
      "geometry": {
        "type": "Point",
        "coordinates": [
          -75.35090821164428,
          -0.010622764588191082
        ]
      }
    },
    {
      "type": "Feature",
      "properties": {
        "norad_id": 41747,
        "name": "INTELSAT 36 (IS-36)",
        "group": "intelsat",
        "lat": 0.030982646163032958,
        "lon": 88.20468605262242,
        "alt_km": 35789.04014032641,
        "timestamp": "2025-12-25T19:00:39.016031+00:00",
        "meta_object_name": "INTELSAT 36 (IS-36)",
        "meta_object_id": "2016-053A",
        "meta_epoch": "2025-12-24T23:41:40.191072",
        "meta_mean_motion": 1.00271078,
        "meta_eccentricity": 0.00011962,
        "meta_inclination": 0.0114,
        "meta_ra_of_asc_node": 13.9545,
        "meta_arg_of_pericenter": 310.844,
        "meta_mean_anomaly": 192.8649,
        "meta_ephemeris_type": 0,
        "meta_classification_type": "U",
        "meta_norad_cat_id": 41747,
        "meta_element_set_no": 999,
        "meta_rev_at_epoch": 3420,
        "meta_bstar": 0,
        "meta_mean_motion_dot": -3e-08,
        "meta_mean_motion_ddot": 0,
        "tle_line1": "1 41747U 16053A   25358.98727073 -.00000003  00000+0  00000+0 0  9996",
        "tle_line2": "2 41747   0.0114  13.9545 0001196 310.8440 192.8649  1.00271078 34209"
      },
      "geometry": {
        "type": "Point",
        "coordinates": [
          88.20468605262242,
          0.030982646163032958
        ]
      }
    },
    {
      "type": "Feature",
      "properties": {
        "norad_id": 41945,
        "name": "INTELSAT 32E (IS-32E)",
        "group": "intelsat",
        "lat": -0.03544180101124659,
        "lon": -23.48419069603432,
        "alt_km": 35785.28282942228,
        "timestamp": "2025-12-25T19:00:39.016042+00:00",
        "meta_object_name": "INTELSAT 32E (IS-32E)",
        "meta_object_id": "2017-007B",
        "meta_epoch": "2025-12-25T00:22:38.801568",
        "meta_mean_motion": 1.00269238,
        "meta_eccentricity": 5.811e-05,
        "meta_inclination": 0.0247,
        "meta_ra_of_asc_node": 70.7828,
        "meta_arg_of_pericenter": 314.6523,
        "meta_mean_anomaly": 30.8337,
        "meta_ephemeris_type": 0,
        "meta_classification_type": "U",
        "meta_norad_cat_id": 41945,
        "meta_element_set_no": 999,
        "meta_rev_at_epoch": 3247,
        "meta_bstar": 0,
        "meta_mean_motion_dot": -2.48e-06,
        "meta_mean_motion_ddot": 0,
        "tle_line1": "1 41945U 17007B   25359.01572687 -.00000248  00000+0  00000+0 0  9991",
        "tle_line2": "2 41945   0.0247  70.7828 0000581 314.6523  30.8337  1.00269238 32479"
      },
      "geometry": {
        "type": "Point",
        "coordinates": [
          -23.48419069603432,
          -0.03544180101124659
        ]
      }
    },
    {
      "type": "Feature",
      "properties": {
        "norad_id": 42818,
        "name": "INTELSAT 35E (IS-35E)",
        "group": "intelsat",
        "lat": -0.022891844113275165,
        "lon": -14.79664655033898,
        "alt_km": 35783.498491115395,
        "timestamp": "2025-12-25T19:00:39.016054+00:00",
        "meta_object_name": "INTELSAT 35E (IS-35E)",
        "meta_object_id": "2017-041A",
        "meta_epoch": "2025-12-24T19:47:02.663232",
        "meta_mean_motion": 1.00269135,
        "meta_eccentricity": 0.0001994,
        "meta_inclination": 0.0182,
        "meta_ra_of_asc_node": 26.5073,
        "meta_arg_of_pericenter": 252.5399,
        "meta_mean_anomaly": 76.7961,
        "meta_ephemeris_type": 0,
        "meta_classification_type": "U",
        "meta_norad_cat_id": 42818,
        "meta_element_set_no": 999,
        "meta_rev_at_epoch": 3106,
        "meta_bstar": 0,
        "meta_mean_motion_dot": -2.17e-06,
        "meta_mean_motion_ddot": 0,
        "tle_line1": "1 42818U 17041A   25358.82433638 -.00000217  00000+0  00000+0 0  9995",
        "tle_line2": "2 42818   0.0182  26.5073 0001994 252.5399  76.7961  1.00269135 31060"
      },
      "geometry": {
        "type": "Point",
        "coordinates": [
          -14.79664655033898,
          -0.022891844113275165
        ]
      }
    },
    {
      "type": "Feature",
      "properties": {
        "norad_id": 42950,
        "name": "INTELSAT 37E (IS-37E)",
        "group": "intelsat",
        "lat": -0.012527550394521117,
        "lon": 1.7379352058675293,
        "alt_km": 35788.62132668525,
        "timestamp": "2025-12-25T19:00:39.016066+00:00",
        "meta_object_name": "INTELSAT 37E (IS-37E)",
        "meta_object_id": "2017-059A",
        "meta_epoch": "2025-12-24T23:17:12.534144",
        "meta_mean_motion": 1.00269836,
        "meta_eccentricity": 0.00031181,
        "meta_inclination": 0.0204,
        "meta_ra_of_asc_node": 23.5202,
        "meta_arg_of_pericenter": 239.519,
        "meta_mean_anomaly": 162.0054,
        "meta_ephemeris_type": 0,
        "meta_classification_type": "U",
        "meta_norad_cat_id": 42950,
        "meta_element_set_no": 999,
        "meta_rev_at_epoch": 3031,
        "meta_bstar": 0,
        "meta_mean_motion_dot": 0,
        "meta_mean_motion_ddot": 0,
        "tle_line1": "1 42950U 17059A   25358.97028396  .00000000  00000+0  00000+0 0  9997",
        "tle_line2": "2 42950   0.0204  23.5202 0003118 239.5190 162.0054  1.00269836 30314"
      },
      "geometry": {
        "type": "Point",
        "coordinates": [
          1.7379352058675293,
          -0.012527550394521117
        ]
      }
    },
    {
      "type": "Feature",
      "properties": {
        "norad_id": 43632,
        "name": "AZERSPACE 2 (IS-38)",
        "group": "intelsat",
        "lat": 0.03042043081093164,
        "lon": 64.81311801904383,
        "alt_km": 35791.004107301065,
        "timestamp": "2025-12-25T19:00:39.016077+00:00",
        "meta_object_name": "AZERSPACE 2 (IS-38)",
        "meta_object_id": "2018-074A",
        "meta_epoch": "2025-12-25T03:17:38.614272",
        "meta_mean_motion": 1.00270963,
        "meta_eccentricity": 0.00013323,
        "meta_inclination": 0.018,
        "meta_ra_of_asc_node": 13.2849,
        "meta_arg_of_pericenter": 263.6631,
        "meta_mean_anomaly": 271.4681,
        "meta_ephemeris_type": 0,
        "meta_classification_type": "U",
        "meta_norad_cat_id": 43632,
        "meta_element_set_no": 999,
        "meta_rev_at_epoch": 2670,
        "meta_bstar": 0,
        "meta_mean_motion_dot": 1.58e-06,
        "meta_mean_motion_ddot": 0,
        "tle_line1": "1 43632U 18074A   25359.13725248  .00000158  00000+0  00000+0 0  9996",
        "tle_line2": "2 43632   0.0180  13.2849 0001332 263.6631 271.4681  1.00270963 26704"
      },
      "geometry": {
        "type": "Point",
        "coordinates": [
          64.81311801904383,
          0.03042043081093164
        ]
      }
    },
    {
      "type": "Feature",
      "properties": {
        "norad_id": 43633,
        "name": "HORIZONS-3E",
        "group": "intelsat",
        "lat": -0.00124247112906697,
        "lon": -171.32101508306073,
        "alt_km": 35788.73771227969,
        "timestamp": "2025-12-25T19:00:39.016090+00:00",
        "meta_object_name": "HORIZONS-3E",
        "meta_object_id": "2018-074B",
        "meta_epoch": "2025-12-24T12:50:38.701824",
        "meta_mean_motion": 1.0026891,
        "meta_eccentricity": 6.503e-05,
        "meta_inclination": 0.0125,
        "meta_ra_of_asc_node": 213.101,
        "meta_arg_of_pericenter": 109.3498,
        "meta_mean_anomaly": 132.5125,
        "meta_ephemeris_type": 0,
        "meta_classification_type": "U",
        "meta_norad_cat_id": 43633,
        "meta_element_set_no": 999,
        "meta_rev_at_epoch": 2659,
        "meta_bstar": 0,
        "meta_mean_motion_dot": 0,
        "meta_mean_motion_ddot": 0,
        "tle_line1": "1 43633U 18074B   25358.53517016  .00000000  00000+0  00000+0 0  9998",
        "tle_line2": "2 43633   0.0125 213.1010 0000650 109.3498 132.5125  1.00268910 26590"
      },
      "geometry": {
        "type": "Point",
        "coordinates": [
          -171.32101508306073,
          -0.00124247112906697
        ]
      }
    }
  ]
}